{
  "norad_id": 63842,
  "name": "STARLINK-34026",
  "history": [
    {
      "epoch": "2026-03-28T22:33:51.127776Z",
      "apogee_km": 483.34422820458803,
      "perigee_km": 482.6736198019753,
      "latitude_deg": 3.0017878014367596e-05,
      "longitude_deg": 164.60248481477774,
      "height_km": 482.9348479757878,
      "semi_major_axis_km": 6861.145924003281,
      "eccentricity": 4.887e-05,
      "inclination_deg": 43.001,
      "raan_deg": 329.4189,
      "arg_perigee_deg": 243.4263,
      "mean_anomaly_deg": 116.6539,
      "mean_motion_rev_day": 15.27593416
    },
    {
      "epoch": "2026-03-29T00:07:56.999712Z",
      "apogee_km": 484.4070344735255,
      "perigee_km": 481.3868073415424,
      "latitude_deg": -1.613077328147163e-05,
      "longitude_deg": 140.64716148062854,
      "height_km": 482.2553866305426,
      "semi_major_axis_km": 6861.033920907534,
      "eccentricity": 0.0002201,
      "inclination_deg": 43.0009,
      "raan_deg": 329.0525,
      "arg_perigee_deg": 286.1068,
      "mean_anomaly_deg": 73.9541,
      "mean_motion_rev_day": 15.27630822
    },
    {
      "epoch": "2026-03-29T23:40:20.956224Z",
      "apogee_km": 483.902795283725,
      "perigee_km": 481.9800466670322,
      "latitude_deg": -2.5928697288011615e-05,
      "longitude_deg": 141.04487978034797,
      "height_km": 482.283354311671,
      "semi_major_axis_km": 6861.078420975378,
      "eccentricity": 0.00014012,
      "inclination_deg": 43.0027,
      "raan_deg": 323.5168,
      "arg_perigee_deg": 296.903,
      "mean_anomaly_deg": 63.1678,
      "mean_motion_rev_day": 15.2761596
    },
    {
      "epoch": "2026-03-30T15:21:55.129824Z",
      "apogee_km": 483.92983013737376,
      "perigee_km": 482.1649962826077,
      "latitude_deg": 5.4039867030956764e-05,
      "longitude_deg": -98.68680565748913,
      "height_km": 482.7210905523535,
      "semi_major_axis_km": 6861.18441320999,
      "eccentricity": 0.00012861,
      "inclination_deg": 43.0004,
      "raan_deg": 319.8219,
      "arg_perigee_deg": 276.7015,
      "mean_anomaly_deg": 83.3691,
      "mean_motion_rev_day": 15.27580562
    },
    {
      "epoch": "2026-03-30T21:38:32.368992Z",
      "apogee_km": 484.2469215665351,
      "perigee_km": 481.7598953912693,
      "latitude_deg": 8.27921164732841e-06,
      "longitude_deg": 165.42119496740787,
      "height_km": 482.9879411040703,
      "semi_major_axis_km": 6861.140408478902,
      "eccentricity": 0.00018124,
      "inclination_deg": 43.0009,
      "raan_deg": 318.3429,
      "arg_perigee_deg": 260.3966,
      "mean_anomaly_deg": 99.6681,
      "mean_motion_rev_day": 15.27595258
    },
    {
      "epoch": "2026-03-31T21:10:54.048000Z",
      "apogee_km": 483.1761407433987,
      "perigee_km": 482.8125007833978,
      "latitude_deg": 5.5060314593649545e-06,
      "longitude_deg": 165.82513719246333,
      "height_km": 482.9488074848011,
      "semi_major_axis_km": 6861.131320763398,
      "eccentricity": 2.65e-05,
      "inclination_deg": 43.0008,
      "raan_deg": 312.8039,
      "arg_perigee_deg": 170.0121,
      "mean_anomaly_deg": 190.0736,
      "mean_motion_rev_day": 15.27598293
    },
    {
      "epoch": "2026-04-01T20:43:14.736000Z",
      "apogee_km": 484.0967659473554,
      "perigee_km": 481.8422063560065,
      "latitude_deg": -4.759712405239416e-05,
      "longitude_deg": 166.23306612781775,
      "height_km": 482.5679442204515,
      "semi_major_axis_km": 6861.106486151681,
      "eccentricity": 0.0001643,
      "inclination_deg": 43.0012,
      "raan_deg": 307.2648,
      "arg_perigee_deg": 279.1153,
      "mean_anomaly_deg": 80.9512,
      "mean_motion_rev_day": 15.27606587
    }
  ]
}